[{"OBJECT_NAME":"ONEWEB-0634","OBJECT_ID":"2023-043AF","EPOCH":"2026-03-09T23:17:00.385440","MEAN_MOTION":13.15547737,"ECCENTRICITY":0.00018498,"INCLINATION":87.8937,"RA_OF_ASC_NODE":279.0418,"ARG_OF_PERICENTER":81.7041,"MEAN_ANOMALY":278.4299,"EPHEMERIS_TYPE":0,"CLASSIFICATION_TYPE":"U","NORAD_CAT_ID":56075,"ELEMENT_SET_NO":999,"REV_AT_EPOCH":14335,"BSTAR":0.00013013715,"MEAN_MOTION_DOT":6.2e-7,"MEAN_MOTION_DDOT":0},{"OBJECT_NAME":"DELTA 1 DEB","OBJECT_ID":"1975-052KF","EPOCH":"2026-03-06T18:28:34.577760","MEAN_MOTION":13.31068139,"ECCENTRICITY":0.01116365,"INCLINATION":99.7769,"RA_OF_ASC_NODE":1.4594,"ARG_OF_PERICENTER":57.1487,"MEAN_ANOMALY":332.2952,"EPHEMERIS_TYPE":0,"CLASSIFICATION_TYPE":"U","NORAD_CAT_ID":26827,"ELEMENT_SET_NO":999,"REV_AT_EPOCH":58153,"BSTAR":0.0018309461,"MEAN_MOTION_DOT":8.59e-6,"MEAN_MOTION_DDOT":0}]
